     3.03           N: GNSS NAV DATA    M: MIXED            RINEX VERSION / TYPE
GR30 V4.20          ASI-egeos           20210710 235942 UTC PGM / RUN BY / DATE
GAL    5.1000D+01  3.1250D-01  1.0406D-02                   IONOSPHERIC CORR
GPSA   4.6566D-09  1.4901D-08 -5.9605D-08 -1.1921D-07       IONOSPHERIC CORR
GPSB   7.9872D+04  8.1920D+04 -6.5536D+04 -4.5875D+05       IONOSPHERIC CORR
BDSA   8.3819D-09  7.4506D-09 -1.7881D-07  3.5763D-07 W 05  IONOSPHERIC CORR
BDSA   8.3819D-09  7.4506D-09 -1.7881D-07  3.5763D-07 Q 06  IONOSPHERIC CORR
BDSA   8.3819D-09  7.4506D-09 -1.7881D-07  3.5763D-07 W 07  IONOSPHERIC CORR
BDSA   8.3819D-09  1.4901D-08 -2.3842D-07  3.5763D-07 I 08  IONOSPHERIC CORR
BDSA   8.3819D-09  7.4506D-09 -1.7881D-07  3.5763D-07 S 09  IONOSPHERIC CORR
BDSA   8.3819D-09  7.4506D-09 -1.7881D-07  3.5763D-07 W 10  IONOSPHERIC CORR
BDSA   8.3819D-09  1.4901D-08 -2.3842D-07  3.5763D-07 S 11  IONOSPHERIC CORR
BDSA   8.3819D-09  1.4901D-08 -2.3842D-07  3.5763D-07 R 12  IONOSPHERIC CORR
BDSA   8.3819D-09  1.4901D-08 -2.3842D-07  3.5763D-07 K 13  IONOSPHERIC CORR
BDSA   8.3819D-09  7.4506D-09 -1.7881D-07  3.5763D-07 V 14  IONOSPHERIC CORR
BDSA   8.3819D-09  7.4506D-09 -1.7881D-07  3.5763D-07 Q 16  IONOSPHERIC CORR
BDSA   8.3819D-09  7.4506D-09 -1.7881D-07  3.5763D-07 U 19  IONOSPHERIC CORR
BDSA   8.3819D-09  7.4506D-09 -1.7881D-07  3.5763D-07 S 20  IONOSPHERIC CORR
BDSA   8.3819D-09  7.4506D-09 -1.7881D-07  3.5763D-07 W 21  IONOSPHERIC CORR
BDSA   8.3819D-09  7.4506D-09 -1.7881D-07  3.5763D-07 W 22  IONOSPHERIC CORR
BDSA   8.3819D-09  1.4901D-08 -2.3842D-07  3.5763D-07 I 23  IONOSPHERIC CORR
BDSA   8.3819D-09  7.4506D-09 -1.7881D-07  3.5763D-07 W 24  IONOSPHERIC CORR
BDSA   8.3819D-09  2.2352D-08 -2.9802D-07  4.7684D-07 G 25  IONOSPHERIC CORR
BDSA   8.3819D-09  7.4506D-09 -1.7881D-07  3.5763D-07 W 26  IONOSPHERIC CORR
BDSA   8.3819D-09  7.4506D-09 -1.7881D-07  3.5763D-07 M 27  IONOSPHERIC CORR
BDSA   8.3819D-09  1.4901D-08 -2.3842D-07  3.5763D-07 K 28  IONOSPHERIC CORR
BDSA   8.3819D-09  7.4506D-09 -1.7881D-07  3.5763D-07 X 29  IONOSPHERIC CORR
BDSA   8.3819D-09  7.4506D-09 -1.7881D-07  3.5763D-07 O 30  IONOSPHERIC CORR
BDSB   1.0240D+05  3.4406D+05 -1.0486D+06  6.5536D+05 W 05  IONOSPHERIC CORR
BDSB   1.0035D+05  3.7683D+05 -1.1796D+06  7.2090D+05 Q 06  IONOSPHERIC CORR
BDSB   1.0240D+05  3.4406D+05 -1.0486D+06  6.5536D+05 W 07  IONOSPHERIC CORR
BDSB   1.0240D+05  3.7683D+05 -1.3107D+06  7.8643D+05 I 08  IONOSPHERIC CORR
BDSB   1.0035D+05  4.2598D+05 -1.4418D+06  9.1750D+05 S 09  IONOSPHERIC CORR
BDSB   1.0240D+05  3.4406D+05 -1.0486D+06  6.5536D+05 W 10  IONOSPHERIC CORR
BDSB   1.0445D+05  3.6045D+05 -1.2452D+06  7.8643D+05 S 11  IONOSPHERIC CORR
BDSB   1.0240D+05  3.7683D+05 -1.3107D+06  7.8643D+05 R 12  IONOSPHERIC CORR
BDSB   1.0445D+05  3.6045D+05 -1.2452D+06  7.8643D+05 K 13  IONOSPHERIC CORR
BDSB   1.0445D+05  3.6045D+05 -1.1796D+06  7.2090D+05 V 14  IONOSPHERIC CORR
BDSB   1.0035D+05  3.7683D+05 -1.1796D+06  7.2090D+05 Q 16  IONOSPHERIC CORR
BDSB   1.0240D+05  3.6045D+05 -1.1141D+06  6.5536D+05 U 19  IONOSPHERIC CORR
BDSB   1.0035D+05  4.2598D+05 -1.4418D+06  9.1750D+05 S 20  IONOSPHERIC CORR
BDSB   1.0240D+05  3.4406D+05 -1.0486D+06  6.5536D+05 W 21  IONOSPHERIC CORR
BDSB   1.0240D+05  3.4406D+05 -1.0486D+06  6.5536D+05 W 22  IONOSPHERIC CORR
BDSB   1.0240D+05  3.7683D+05 -1.3107D+06  7.8643D+05 I 23  IONOSPHERIC CORR
BDSB   1.0240D+05  3.4406D+05 -1.0486D+06  6.5536D+05 W 24  IONOSPHERIC CORR
BDSB   1.0445D+05  3.4406D+05 -1.0486D+06  5.8982D+05 G 25  IONOSPHERIC CORR
BDSB   1.0240D+05  3.4406D+05 -1.0486D+06  6.5536D+05 W 26  IONOSPHERIC CORR
BDSB   1.0445D+05  3.6045D+05 -1.1796D+06  7.2090D+05 M 27  IONOSPHERIC CORR
BDSB   1.0445D+05  3.6045D+05 -1.2452D+06  7.8643D+05 K 28  IONOSPHERIC CORR
BDSB   1.0240D+05  3.4406D+05 -1.0486D+06  6.5536D+05 X 29  IONOSPHERIC CORR
BDSB   1.0240D+05  3.4406D+05 -1.1141D+06  6.5536D+05 O 30  IONOSPHERIC CORR
GPUT -9.3132257462D-10-1.776356839D-15 233472 2166          TIME SYSTEM CORR
GLUT  1.7229467630D-08 0.000000000D+00      0    0          TIME SYSTEM CORR
GAUT  0.0000000000D+00 0.000000000D+00 518400 2165          TIME SYSTEM CORR
GPGA  1.8626451492D-09-2.220446049D-15      0 2166          TIME SYSTEM CORR
BDUT -6.5192580223D-09-9.769962617D-15 604745  809          TIME SYSTEM CORR
    18    18  1929     7                                    LEAP SECONDS
                                                            END OF HEADER
E07 2021 07 11 00 40 00-5.601732991636D-04-4.519051799434D-12 0.000000000000D+00
     4.000000000000D+00-1.443750000000D+01 3.199776140663D-09-2.628811329664D+00
    -6.128102540970D-07 3.710318123922D-04 1.031346619129D-05 5.440630073547D+03
     2.400000000000D+03 1.862645149231D-09-2.408671608738D+00-3.352761268616D-08
     9.551288930665D-01 1.192187500000D+02-7.997095939946D-01-5.330936340611D-09
     6.928860043404D-10 2.580000000000D+02 2.166000000000D+03 0.000000000000D+00
     3.120000000000D+00 0.000000000000D+00 5.122274160385D-09 0.000000000000D+00
     3.250000000000D+03
R08 2021 07 11 01 15 00-5.986914038658D-05-0.000000000000D+00 3.600000000000D+03
     2.488754638672D+04 7.721300125122D-01 2.793967723846D-09 0.000000000000D+00
    -8.178710937500D-01-7.737064361572D-02-9.313225746155D-10 6.000000000000D+00
     5.604623046875D+03-3.465400695801D+00-2.793967723846D-09 0.000000000000D+00
R09 2021 07 11 01 15 00 2.289190888405D-06 1.818989403546D-12 3.600000000000D+03
    -3.928557128906D+03-1.209980964661D+00-2.793967723846D-09 0.000000000000D+00
     1.934470410156D+04 1.846350669861D+00-1.862645149231D-09-2.000000000000D+00
     1.613100000000D+04-2.518853187561D+00-0.000000000000D+00 0.000000000000D+00
R01 2021 07 11 01 15 00 8.212868124247D-05 0.000000000000D+00 3.600000000000D+03
     1.625539892578D+04 2.490584373474D+00 9.313225746155D-10 0.000000000000D+00
    -7.420548339844D+03 1.209859848022D-01 0.000000000000D+00 1.000000000000D+00
     1.821441064453D+04-2.172203063965D+00-2.793967723846D-09 0.000000000000D+00
R10 2021 07 11 01 15 00-7.274933159351D-05-0.000000000000D+00 3.600000000000D+03
     8.068889648438D+03-1.805098533630D+00-9.313225746155D-10 0.000000000000D+00
     7.598719238281D+03 2.576211929321D+00-0.000000000000D+00-7.000000000000D+00
     2.297353515625D+04-2.120513916016D-01-1.862645149231D-09 0.000000000000D+00
R07 2021 07 11 01 15 00-4.206970334053D-05-0.000000000000D+00 3.600000000000D+03
     2.173252880859D+04-1.481043815613D+00 3.725290298462D-09 0.000000000000D+00
     7.553839843750D+03-3.007516860962D-01-1.862645149231D-09 5.000000000000D+00
    -1.092856835938D+04-3.145582199097D+00-9.313225746155D-10 0.000000000000D+00
C10 2021 07 11 01 00 00-2.009444870055D-05 4.421352173267D-12 0.000000000000D+00
     1.000000000000D+00 3.686250000000D+02 6.868143228591D-10-1.891317524738D+00
     1.197261735797D-05 7.608783431351D-03 2.760021016002D-05 6.493109375000D+03
     3.600000000000D+03-2.053566277027D-07 7.378797870835D-02-2.733431756496D-07
     8.895316712617D-01-6.181406250000D+02-2.545804523983D+00-1.430059567721D-09
    -8.964659128322D-10                    8.100000000000D+02                   
     2.000000000000D+00 0.000000000000D+00 6.100000000000D-09 2.600000000000D-09
     3.600000000000D+03 0.000000000000D+00                                      
C26 2021 07 11 01 00 00 8.805360412225D-04-5.310418771387D-12 0.000000000000D+00
     1.000000000000D+00-2.517187500000D+01 4.286249968087D-09 1.498085703866D+00
    -1.230742782354D-06 6.295065395534D-04 6.588175892830D-06 5.282614170074D+03
     3.600000000000D+03-7.450580596924D-09-8.155508667843D-01 2.142041921616D-08
     9.504789216394D-01 2.226250000000D+02 1.790635252746D-01-6.872786279135D-09
    -6.346692936664D-10                    8.100000000000D+02                   
     2.000000000000D+00 0.000000000000D+00-4.900000000000D-09-4.900000000000D-09
     3.600000000000D+03 1.000000000000D+00                                      
C29 2021 07 11 01 00 00 4.178237868473D-04 5.206501896282D-12 0.000000000000D+00
     1.000000000000D+00 1.269687500000D+02 3.698368337600D-09-4.472507672983D-01
     6.270129233599D-06 3.344079013914D-04 1.286622136831D-06 5.282621564865D+03
     3.600000000000D+03-4.982575774193D-08 1.273966503441D+00-2.188608050346D-08
     9.650798490952D-01 3.367031250000D+02 1.604275024174D+00-7.068151559740D-09
     3.185846989029D-10                    8.100000000000D+02                   
     2.000000000000D+00 0.000000000000D+00-2.000000000000D-10-2.000000000000D-10
     3.600000000000D+03 1.000000000000D+00                                      
C24 2021 07 11 01 00 00-9.331229375675D-04-1.844480124191D-11 0.000000000000D+00
     1.000000000000D+00-2.612500000000D+01 4.339823628217D-09 9.799539765023D-01
    -1.252628862858D-06 3.659037174657D-04 6.849411875010D-06 5.282612493515D+03
     3.600000000000D+03 2.142041921616D-08-7.908504971147D-01-3.306195139885D-08
     9.491642761591D-01 2.135625000000D+02-3.919522093542D-02-6.939217617696D-09
    -6.721708557570D-10                    8.100000000000D+02                   
     2.000000000000D+00 0.000000000000D+00 7.000000000000D-09 7.000000000000D-09
     3.600000000000D+03 1.000000000000D+00                                      
C14 2021 07 11 01 00 00 8.183392928913D-04-3.489386557476D-11 1.070649645329D-18
     1.400000000000D+01-8.646875000000D+01 3.566577133682D-09-3.124021665962D+00
    -4.200730472803D-06 1.407610136084D-03 1.133373007178D-05 5.282626850128D+03
     3.600000000000D+03-3.399327397346D-08-2.895860221002D+00-2.561137080193D-08
     9.641443422418D-01 1.336562500000D+02-5.276498000807D-01-6.427410584593D-09
     4.039453973758D-10                    8.100000000000D+02                   
     2.000000000000D+00 0.000000000000D+00 6.700000000000D-09 1.400000000000D-09
     3.600000000000D+03 1.300000000000D+01                                      
